ONEWEB-0554             
1 56056U 23043L   24057.95893139  .00000080  00000+0  17594-3 0  9995
2 56056  87.9079  36.2135 0002526  87.0624 273.0796 13.16594776 48269
ONEWEB-0555             
1 56057U 23043M   24057.92091555  .00000094  00000+0  21188-3 0  9994
2 56057  87.9075  36.1947 0001897 108.9850 251.1486 13.16592298 48260
ONEWEB-0557             
1 56058U 23043N   24057.93517248  .00000057  00000+0  11517-3 0  9992
2 56058  87.9077  36.2182 0002361 112.9685 247.1696 13.16595395 48262
ONEWEB-0558             
1 56059U 23043P   24057.92564890  .00000108  00000+0  22950-3 0  9997
2 56059  87.9222  51.4210 0001877  70.9988 289.1349 13.21825034 47101
ONEWEB-0559             
1 56060U 23043Q   24057.91460793  .00000072  00000+0  14306-3 0  9991
2 56060  87.9217  51.4227 0002445  77.5221 282.6187 13.21824385 47117
